{
  "norad_id": 68808,
  "name": "STARLINK-37446",
  "history": [
    {
      "epoch": "2026-04-27T12:56:43.294272Z",
      "apogee_km": 268.19883742604,
      "perigee_km": 266.8843222029518,
      "latitude_deg": 5.256070111940915e-05,
      "longitude_deg": -87.02054856513624,
      "height_km": 270.8855617522063,
      "semi_major_axis_km": 6645.678579814496,
      "eccentricity": 9.89e-05,
      "inclination_deg": 97.2861,
      "raan_deg": 322.6876,
      "arg_perigee_deg": 102.3568,
      "mean_anomaly_deg": 257.7823,
      "mean_motion_rev_day": 16.02484225
    }
  ]
}