STARLINK-37446          
1 68808U 26089G   26117.53938998 -.00915938  28659-3 -15710-2 0  9992
2 68808  97.2861 322.6876 0000989 102.3568 257.7823 16.02484225   716
